From: horizons@ssd.jpl.nasa.gov (Horizons Ephemeris System)
Subject: [Horizons] SMALL BODY #C(500@10)_T(41P/Tuttle-Giacobini-Kresak) (1/1)
Date: March 1, 2021 at 1:22:49 PM PST

Automated mail xmit by MAIL_REQUEST, PID= 2301 Mon Mar  1 13:22:49 2021
++++++++++++++++++++++++++++++++ (part 1 of 1)  +++++++++++++++++++++++++++++++
*******************************************************************************
JPL/HORIZONS             41P/Tuttle-Giacobini-Kresak       2021-Mar-01 13:22:49
Rec #:90000488 (+COV) Soln.date: 2018-Jan-31_15:24:02   # obs: 4259 (2016-2017)

IAU76/J2000 helio. ecliptic osc. elements (au, days, deg., period=Julian yrs):

 EPOCH=  2457844.5 ! 2017-Apr-01.0000000 (TDB)    RMSW= n.a.
  EC= .6612506884287184   QR= 1.0450427369138     TP= 2457856.2522548568
  OM= 141.066286210229    W= 62.15858521740492    IN= 9.229131696230207
  A= 3.085003278874254    MA= 357.8623242535945   ADIST= 5.124963820834708
  PER= 5.4186569770742    N= .18189494            ANGMOM= .022665539
  DAN= 1.32644            DDN= 2.51176            L= 202.9154455
  B= 8.153043             MOID= .133597           TP= 2017-Apr-12.7522548568

Comet physical (GM= km^3/s^2; RAD= km):
  GM= n.a.                RAD= .700
  M1=  15.3     M2=  n.a.     k1=  17.    k2= n.a.     PHCOF= n.a.

Comet non-gravitational force model (AMRAT=m^2/kg;A1-A3=au/d^2;DT=days;R0=au):
  AMRAT=  0.                                      DT=  11.40672
  A1= 1.744307518005E-8   A2= 4.288032948971E-9   A3= 1.47032007575E-9
Non-standard or simulated/proxy model:
  ALN=  24.49099922   NK=  4.6142   NM=  2.15     NN=  5.093    R0=  1.

COMET comments 
1: soln ref.= JPL#K171/18, data arc: 2016-11-10 to 2017-07-30
2: k1=17.; radar( 2 delay, 7 Dop.);Using nonstandard R0=1 au and ALN=24.491
*******************************************************************************


*******************************************************************************
Ephemeris / MAIL_REQUEST Mon Mar  1 13:22:49 2021 Pasadena, USA  / Horizons
*******************************************************************************
Target body name: 41P/Tuttle-Giacobini-Kresak     {source: JPL#K171/18}
Center body name: Sun (10)                        {source: DE431}
Center-site name: BODY CENTER
*******************************************************************************
Start time      : A.D. 1990-Jan-01 00:00:00.0000 TDB
Stop  time      : A.D. 2020-Dec-31 00:00:00.0000 TDB
Step-size       : 10080 minutes
*******************************************************************************
Center geodetic : 0.00000000,0.00000000,0.0000000 {E-lon(deg),Lat(deg),Alt(km)}
Center cylindric: 0.00000000,0.00000000,0.0000000 {E-lon(deg),Dxy(km),Dz(km)}
Center radii    : 696000.0 x 696000.0 x 696000.0 k{Equator, meridian, pole}    
Small perturbers: Yes                             {source: SB431-N16}
Output units    : AU-D
Output type     : GEOMETRIC cartesian states
Output format   : 6 (LT, range, and range-rate)
Reference frame : Ecliptic of J2000.0
*******************************************************************************
Initial IAU76/J2000 heliocentric ecliptic osculating elements (au, days, deg.):
 EPOCH=  2457844.5 ! 2017-Apr-01.0000000 (TDB)    RMSW= n.a.                  
  EC= .6612506884287184   QR= 1.0450427369138     TP= 2457856.2522548568      
  OM= 141.066286210229    W= 62.15858521740492    IN= 9.229131696230207       
 Equivalent ICRF heliocentric equatorial cartesian coordinates (au, au/d):
  X=-1.036812525793719E+00  Y=-2.008116849895480E-01  Z= 5.091918179816331E-02
 VX= 5.630864580994893E-03 VY=-1.979150458906360E-02 VZ=-6.357442463815101E-03
Comet physical (GM= km^3/s^2; RAD= km):                                        
  GM= n.a.                RAD= .700                                           
  M1=  15.3     M2=  n.a.     k1=  17.    k2= n.a.     PHCOF= n.a.            
Comet non-gravitational force model (AMRAT=m^2/kg;A1-A3=au/d^2;DT=days;R0=au): 
  AMRAT=  0.                                      DT=  11.40672               
  A1= 1.744307518005E-8   A2= 4.288032948971E-9   A3= 1.47032007575E-9        
Non-standard or simulated/proxy model:                                        
  ALN=  24.49099922   NK=  4.6142   NM=  2.15     NN=  5.093    R0=  1.       
*******************************************************************************
           JDTDB,            Calendar Date (TDB),                     LT,                     RG,                     RR,
**************************************************************************************************************************
$$SOE
2453611.500000000, A.D. 2005-Aug-29 00:00:00.0000,  1.782039569588851E-02,  3.085505866874229E+00, -6.467513755718174E-03,
2453618.500000000, A.D. 2005-Sep-05 00:00:00.0000,  1.755699889829144E-02,  3.039900125106714E+00, -6.562860395074572E-03,
2453625.500000000, A.D. 2005-Sep-12 00:00:00.0000,  1.728972789410458E-02,  2.993623585262304E+00, -6.659165113613235E-03,
2453632.500000000, A.D. 2005-Sep-19 00:00:00.0000,  1.701854463979446E-02,  2.946669660307375E+00, -6.756392266920072E-03,
2453639.500000000, A.D. 2005-Sep-26 00:00:00.0000,  1.674341274120269E-02,  2.899032048788735E+00, -6.854495253360894E-03,
2453646.500000000, A.D. 2005-Oct-03 00:00:00.0000,  1.646429796934510E-02,  2.850704824141498E+00, -6.953413075692532E-03,
2453653.500000000, A.D. 2005-Oct-10 00:00:00.0000,  1.618116889974527E-02,  2.801682545386237E+00, -7.053067509901469E-03,
2453660.500000000, A.D. 2005-Oct-17 00:00:00.0000,  1.589399767139739E-02,  2.751960388539334E+00, -7.153359905598921E-03,
2453667.500000000, A.D. 2005-Oct-24 00:00:00.0000,  1.560276088938304E-02,  2.701534302896230E+00, -7.254167252765944E-03,
2453674.500000000, A.D. 2005-Oct-31 00:00:00.0000,  1.530744070346557E-02,  2.650401197784260E+00, -7.355337389828291E-03,
2453681.500000000, A.D. 2005-Nov-07 00:00:00.0000,  1.500802609998722E-02,  2.598559166247699E+00, -7.456683217699632E-03,
2453688.500000000, A.D. 2005-Nov-14 00:00:00.0000,  1.470451445080542E-02,  2.546007753237764E+00, -7.557975729624927E-03,
2453695.500000000, A.D. 2005-Nov-21 00:00:00.0000,  1.439691337429493E-02,  2.492748277835153E+00, -7.658935423774330E-03,
2453702.500000000, A.D. 2005-Nov-28 00:00:00.0000,  1.408524299474730E-02,  2.438784224452938E+00, -7.759220939892485E-03,
2453709.500000000, A.D. 2005-Dec-05 00:00:00.0000,  1.376953872480446E-02,  2.384121724599996E+00, -7.858414943833906E-03,
2453716.500000000, A.D. 2005-Dec-12 00:00:00.0000,  1.344985461613449E-02,  2.328770137032543E+00, -7.956010346227057E-03,
2453723.500000000, A.D. 2005-Dec-19 00:00:00.0000,  1.312626731957219E-02,  2.272742733431212E+00, -8.051392635227830E-03,
2453730.500000000, A.D. 2005-Dec-26 00:00:00.0000,  1.279888091119015E-02,  2.216057534009365E+00, -8.143815034279007E-03,
2453737.500000000, A.D. 2006-Jan-02 00:00:00.0000,  1.246783282319784E-02,  2.158738334416427E+00, -8.232368822968685E-03,
2453744.500000000, A.D. 2006-Jan-09 00:00:00.0000,  1.213330108763569E-02,  2.100815959944642E+00, -8.315947697479875E-03,
2453751.500000000, A.D. 2006-Jan-16 00:00:00.0000,  1.179551317786053E-02,  2.042329796384823E+00, -8.393204041554810E-03,
2453758.500000000, A.D. 2006-Jan-23 00:00:00.0000,  1.145475681399577E-02,  1.983329660932050E+00, -8.462495166222708E-03,
2453765.500000000, A.D. 2006-Jan-30 00:00:00.0000,  1.111139317999049E-02,  1.923878090648512E+00, -8.521817390546355E-03,
2453772.500000000, A.D. 2006-Feb-06 00:00:00.0000,  1.076587309109935E-02,  1.864053141775885E+00, -8.568725596255536E-03,
2453779.500000000, A.D. 2006-Feb-13 00:00:00.0000,  1.041875674867990E-02,  1.803951810172444E+00, -8.600235800636239E-03,
2453786.500000000, A.D. 2006-Feb-20 00:00:00.0000,  1.007073781890789E-02,  1.743694200413386E+00, -8.612708242352125E-03,
2453793.500000000, A.D. 2006-Feb-27 00:00:00.0000,  9.722672675963676E-03,  1.683428589091604E+00, -8.601708519359227E-03,
2453800.500000000, A.D. 2006-Mar-06 00:00:00.0000,  9.375615685557283E-03,  1.623337533970662E+00, -8.561848708694950E-03,
2453807.500000000, A.D. 2006-Mar-13 00:00:00.0000,  9.030861178833413E-03,  1.563645141541168E+00, -8.486616503245770E-03,
2453814.500000000, A.D. 2006-Mar-20 00:00:00.0000,  8.689992457205290E-03,  1.504625551944729E+00, -8.368200283514775E-03,
2453821.500000000, A.D. 2006-Mar-27 00:00:00.0000,  8.354937583517300E-03,  1.446612598914308E+00, -8.197334449318392E-03,
2453828.500000000, A.D. 2006-Apr-03 00:00:00.0000,  8.028030250105426E-03,  1.390010348752194E+00, -7.963212830614276E-03,
2453835.500000000, A.D. 2006-Apr-10 00:00:00.0000,  7.712071565060567E-03,  1.335303798289866E+00, -7.653545282676923E-03,
2453842.500000000, A.D. 2006-Apr-17 00:00:00.0000,  7.410384819752842E-03,  1.283068357590873E+00, -7.254870693834292E-03,
2453849.500000000, A.D. 2006-Apr-24 00:00:00.0000,  7.126849889621429E-03,  1.233975806262952E+00, -6.753279949430305E-03,
2453856.500000000, A.D. 2006-May-01 00:00:00.0000,  6.865897161278210E-03,  1.188793241968625E+00, -6.135723822219220E-03,
2453863.500000000, A.D. 2006-May-08 00:00:00.0000,  6.632434284444007E-03,  1.148370397916096E+00, -5.392042548185411E-03,
2453870.500000000, A.D. 2006-May-15 00:00:00.0000,  6.431676182603471E-03,  1.113610210116539E+00, -4.517697197587533E-03,
2453877.500000000, A.D. 2006-May-22 00:00:00.0000,  6.268855495913586E-03,  1.085418682127850E+00, -3.516860768108448E-03,
2453884.500000000, A.D. 2006-May-29 00:00:00.0000,  6.148813358685244E-03,  1.064634030372019E+00, -2.405076785444943E-03,
2453891.500000000, A.D. 2006-Jun-05 00:00:00.0000,  6.075510658688681E-03,  1.051942061307084E+00, -1.210329604235200E-03,
2453898.500000000, A.D. 2006-Jun-12 00:00:00.0000,  6.051547034660671E-03,  1.047792888427211E+00,  2.854374479028633E-05,
2453905.500000000, A.D. 2006-Jun-19 00:00:00.0000,  6.077804619073418E-03,  1.052339248235268E+00,  1.266382796036493E-03,
